{
  "type": "FeatureCollection",
  "features": [
    {
      "type": "Feature",
      "properties": {
        "norad_id": 66917,
        "name": "HULIANWANG DIGUI-107",
        "group": "last-30-days",
        "lat": -35.50098030586238,
        "lon": -37.88810857669643,
        "alt_km": 877.6833664609294,
        "timestamp": "2025-12-15T15:53:18.663250+00:00",
        "meta_object_name": "HULIANWANG DIGUI-107",
        "meta_object_id": "2025-285C",
        "meta_epoch": "2025-12-14T23:26:20.920128",
        "meta_mean_motion": 14.05118032,
        "meta_eccentricity": 0.00074239,
        "meta_inclination": 50.0018,
        "meta_ra_of_asc_node": 108.1205,
        "meta_arg_of_pericenter": 291.8151,
        "meta_mean_anomaly": 68.1964,
        "meta_ephemeris_type": 0,
        "meta_classification_type": "U",
        "meta_norad_cat_id": 66917,
        "meta_element_set_no": 999,
        "meta_rev_at_epoch": 122,
        "meta_bstar": 9.4876933e-05,
        "meta_mean_motion_dot": 2e-08,
        "meta_mean_motion_ddot": 0,
        "tle_line1": "1 66917U 25285C   25348.97663102  .00000002  00000+0  94877-4 0  9997",
        "tle_line2": "2 66917  50.0018 108.1205 0007423 291.8151  68.1964 14.05118032  1229"
      },
      "geometry": {
        "type": "Point",
        "coordinates": [
          -37.88810857669643,
          -35.50098030586238
        ]
      }
    },
    {
      "type": "Feature",
      "properties": {
        "norad_id": 66918,
        "name": "HULIANWANG DIGUI-108",
        "group": "last-30-days",
        "lat": -38.151966857050205,
        "lon": -33.42198167747119,
        "alt_km": 876.9591443512718,
        "timestamp": "2025-12-15T15:53:18.663260+00:00",
        "meta_object_name": "HULIANWANG DIGUI-108",
        "meta_object_id": "2025-285D",
        "meta_epoch": "2025-12-14T23:25:13.369152",
        "meta_mean_motion": 14.05310338,
        "meta_eccentricity": 0.0006366,
        "meta_inclination": 50.0039,
        "meta_ra_of_asc_node": 108.1195,
        "meta_arg_of_pericenter": 288.7286,
        "meta_mean_anomaly": 71.2928,
        "meta_ephemeris_type": 0,
        "meta_classification_type": "U",
        "meta_norad_cat_id": 66918,
        "meta_element_set_no": 999,
        "meta_rev_at_epoch": 122,
        "meta_bstar": 0.00011671298,
        "meta_mean_motion_dot": 3.8e-07,
        "meta_mean_motion_ddot": 0,
        "tle_line1": "1 66918U 25285D   25348.97584918  .00000038  00000+0  11671-3 0  9994",
        "tle_line2": "2 66918  50.0039 108.1195 0006366 288.7286  71.2928 14.05310338  1228"
      },
      "geometry": {
        "type": "Point",
        "coordinates": [
          -33.42198167747119,
          -38.151966857050205
        ]
      }
    },
    {
      "type": "Feature",
      "properties": {
        "norad_id": 66919,
        "name": "HULIANWANG DIGUI-109",
        "group": "last-30-days",
        "lat": -39.518489897506484,
        "lon": -30.861059750237338,
        "alt_km": 875.7348790367259,
        "timestamp": "2025-12-15T15:53:18.663270+00:00",
        "meta_object_name": "HULIANWANG DIGUI-109",
        "meta_object_id": "2025-285E",
        "meta_epoch": "2025-12-14T21:42:26.501760",
        "meta_mean_motion": 14.05717918,
        "meta_eccentricity": 0.00078969,
        "meta_inclination": 50.0065,
        "meta_ra_of_asc_node": 108.4121,
        "meta_arg_of_pericenter": 299.0026,
        "meta_mean_anomaly": 61.0087,
        "meta_ephemeris_type": 0,
        "meta_classification_type": "U",
        "meta_norad_cat_id": 66919,
        "meta_element_set_no": 999,
        "meta_rev_at_epoch": 121,
        "meta_bstar": 0.00014132697,
        "meta_mean_motion_dot": 8e-07,
        "meta_mean_motion_ddot": 0,
        "tle_line1": "1 66919U 25285E   25348.90447340  .00000080  00000+0  14133-3 0  9998",
        "tle_line2": "2 66919  50.0065 108.4121 0007896 299.0026  61.0087 14.05717918  1213"
      },
      "geometry": {
        "type": "Point",
        "coordinates": [
          -30.861059750237338,
          -39.518489897506484
        ]
      }
    },
    {
      "type": "Feature",
      "properties": {
        "norad_id": 66920,
        "name": "HULIANWANG DIGUI-110",
        "group": "last-30-days",
        "lat": -41.880086514104,
        "lon": -25.874226963017627,
        "alt_km": 875.4999413386786,
        "timestamp": "2025-12-15T15:53:18.663279+00:00",
        "meta_object_name": "HULIANWANG DIGUI-110",
        "meta_object_id": "2025-285F",
        "meta_epoch": "2025-12-14T23:23:38.952960",
        "meta_mean_motion": 14.05851962,
        "meta_eccentricity": 0.00058618,
        "meta_inclination": 50.0098,
        "meta_ra_of_asc_node": 108.1218,
        "meta_arg_of_pericenter": 296.03,
        "meta_mean_anomaly": 64.0002,
        "meta_ephemeris_type": 0,
        "meta_classification_type": "U",
        "meta_norad_cat_id": 66920,
        "meta_element_set_no": 999,
        "meta_rev_at_epoch": 122,
        "meta_bstar": 0.00010795379,
        "meta_mean_motion_dot": 2.5e-07,
        "meta_mean_motion_ddot": 0,
        "tle_line1": "1 66920U 25285F   25348.97475640  .00000025  00000+0  10795-3 0  9990",
        "tle_line2": "2 66920  50.0098 108.1218 0005861 296.0300  64.0002 14.05851962  1226"
      },
      "geometry": {
        "type": "Point",
        "coordinates": [
          -25.874226963017627,
          -41.880086514104
        ]
      }
    },
    {
      "type": "Feature",
      "properties": {
        "norad_id": 66921,
        "name": "HULIANWANG DIGUI-111",
        "group": "last-30-days",
        "lat": -42.43791335705641,
        "lon": -24.56651597613851,
        "alt_km": 875.3782157509795,
        "timestamp": "2025-12-15T15:53:18.663287+00:00",
        "meta_object_name": "HULIANWANG DIGUI-111",
        "meta_object_id": "2025-285G",
        "meta_epoch": "2025-12-14T19:58:37.913664",
        "meta_mean_motion": 14.05885743,
        "meta_eccentricity": 0.00070012,
        "meta_inclination": 50.0113,
        "meta_ra_of_asc_node": 108.704,
        "meta_arg_of_pericenter": 302.0174,
        "meta_mean_anomaly": 58.0051,
        "meta_ephemeris_type": 0,
        "meta_classification_type": "U",
        "meta_norad_cat_id": 66921,
        "meta_element_set_no": 999,
        "meta_rev_at_epoch": 120,
        "meta_bstar": 0.00013170604,
        "meta_mean_motion_dot": 6.4e-07,
        "meta_mean_motion_ddot": 0,
        "tle_line1": "1 66921U 25285G   25348.83238326  .00000064  00000+0  13171-3 0  9998",
        "tle_line2": "2 66921  50.0113 108.7040 0007001 302.0174  58.0051 14.05885743  1208"
      },
      "geometry": {
        "type": "Point",
        "coordinates": [
          -24.56651597613851,
          -42.43791335705641
        ]
      }
    },
    {
      "type": "Feature",
      "properties": {
        "norad_id": 66922,
        "name": "HULIANWANG DIGUI-112",
        "group": "last-30-days",
        "lat": -44.22919305906778,
        "lon": -19.905770675209148,
        "alt_km": 875.2665068861306,
        "timestamp": "2025-12-15T15:53:18.663296+00:00",
        "meta_object_name": "HULIANWANG DIGUI-112",
        "meta_object_id": "2025-285H",
        "meta_epoch": "2025-12-14T23:22:20.247744",
        "meta_mean_motion": 14.06001435,
        "meta_eccentricity": 0.00069635,
        "meta_inclination": 50.0088,
        "meta_ra_of_asc_node": 108.1144,
        "meta_arg_of_pericenter": 308.8363,
        "meta_mean_anomaly": 51.192,
        "meta_ephemeris_type": 0,
        "meta_classification_type": "U",
        "meta_norad_cat_id": 66922,
        "meta_element_set_no": 999,
        "meta_rev_at_epoch": 122,
        "meta_bstar": 0.00013076837,
        "meta_mean_motion_dot": 6.3e-07,
        "meta_mean_motion_ddot": 0,
        "tle_line1": "1 66922U 25285H   25348.97384546  .00000063  00000+0  13077-3 0  9994",
        "tle_line2": "2 66922  50.0088 108.1144 0006963 308.8363  51.1920 14.06001435  1229"
      },
      "geometry": {
        "type": "Point",
        "coordinates": [
          -19.905770675209148,
          -44.22919305906778
        ]
      }
    },
    {
      "type": "Feature",
      "properties": {
        "norad_id": 66923,
        "name": "HULIANWANG DIGUI-113",
        "group": "last-30-days",
        "lat": -45.0641918081914,
        "lon": -17.42890152218252,
        "alt_km": 875.139730275826,
        "timestamp": "2025-12-15T15:53:18.663305+00:00",
        "meta_object_name": "HULIANWANG DIGUI-113",
        "meta_object_id": "2025-285J",
        "meta_epoch": "2025-12-14T23:21:49.781376",
        "meta_mean_motion": 14.0605719,
        "meta_eccentricity": 0.00054288,
        "meta_inclination": 50.0086,
        "meta_ra_of_asc_node": 108.1137,
        "meta_arg_of_pericenter": 303.7037,
        "meta_mean_anomaly": 56.335,
        "meta_ephemeris_type": 0,
        "meta_classification_type": "U",
        "meta_norad_cat_id": 66923,
        "meta_element_set_no": 999,
        "meta_rev_at_epoch": 122,
        "meta_bstar": 0.00011078091,
        "meta_mean_motion_dot": 3.1e-07,
        "meta_mean_motion_ddot": 0,
        "tle_line1": "1 66923U 25285J   25348.97349284  .00000031  00000+0  11078-3 0  9999",
        "tle_line2": "2 66923  50.0086 108.1137 0005428 303.7037  56.3350 14.06057190  1220"
      },
      "geometry": {
        "type": "Point",
        "coordinates": [
          -17.42890152218252,
          -45.0641918081914
        ]
      }
    }
  ]
}